<?xml version="1.0" encoding="UTF-8"?>
<ndm xmlns:xsi="http://www.w3.org/2001/XMLSchema-instance" xsi:noNamespaceSchemaLocation="https://sanaregistry.org/r/ndmxml_unqualified/ndmxml-2.0.0-master-2.0.xsd">
<omm id="CCSDS_OMM_VERS" version="2.0">
<header><CREATION_DATE/><ORIGINATOR/></header><body><segment><metadata><OBJECT_NAME>ONEWEB-0342</OBJECT_NAME><OBJECT_ID>2021-083Y</OBJECT_ID><CENTER_NAME>EARTH</CENTER_NAME><REF_FRAME>TEME</REF_FRAME><TIME_SYSTEM>UTC</TIME_SYSTEM><MEAN_ELEMENT_THEORY>SGP4</MEAN_ELEMENT_THEORY></metadata><data><meanElements><EPOCH>2025-03-18T19:48:24.889248</EPOCH><MEAN_MOTION>13.20773048</MEAN_MOTION><ECCENTRICITY>.0001913</ECCENTRICITY><INCLINATION>87.9326</INCLINATION><RA_OF_ASC_NODE>5.0771</RA_OF_ASC_NODE><ARG_OF_PERICENTER>75.8776</ARG_OF_PERICENTER><MEAN_ANOMALY>284.2570</MEAN_ANOMALY></meanElements><tleParameters><EPHEMERIS_TYPE>0</EPHEMERIS_TYPE><CLASSIFICATION_TYPE>U</CLASSIFICATION_TYPE><NORAD_CAT_ID>49208</NORAD_CAT_ID><ELEMENT_SET_NO>999</ELEMENT_SET_NO><REV_AT_EPOCH>17667</REV_AT_EPOCH><BSTAR>.11891E-3</BSTAR><MEAN_MOTION_DOT>.61E-6</MEAN_MOTION_DOT><MEAN_MOTION_DDOT>0</MEAN_MOTION_DDOT></tleParameters></data></segment></body></omm>
<omm id="CCSDS_OMM_VERS" version="2.0">
<header><CREATION_DATE/><ORIGINATOR/></header><body><segment><metadata><OBJECT_NAME>ONEWEB-0343</OBJECT_NAME><OBJECT_ID>2021-083Z</OBJECT_ID><CENTER_NAME>EARTH</CENTER_NAME><REF_FRAME>TEME</REF_FRAME><TIME_SYSTEM>UTC</TIME_SYSTEM><MEAN_ELEMENT_THEORY>SGP4</MEAN_ELEMENT_THEORY></metadata><data><meanElements><EPOCH>2025-03-18T21:04:52.190976</EPOCH><MEAN_MOTION>13.18685757</MEAN_MOTION><ECCENTRICITY>.000172</ECCENTRICITY><INCLINATION>87.9059</INCLINATION><RA_OF_ASC_NODE>65.9736</RA_OF_ASC_NODE><ARG_OF_PERICENTER>67.0414</ARG_OF_PERICENTER><MEAN_ANOMALY>293.0900</MEAN_ANOMALY></meanElements><tleParameters><EPHEMERIS_TYPE>0</EPHEMERIS_TYPE><CLASSIFICATION_TYPE>U</CLASSIFICATION_TYPE><NORAD_CAT_ID>49209</NORAD_CAT_ID><ELEMENT_SET_NO>999</ELEMENT_SET_NO><REV_AT_EPOCH>17003</REV_AT_EPOCH><BSTAR>-.76772E-4</BSTAR><MEAN_MOTION_DOT>-.17E-6</MEAN_MOTION_DOT><MEAN_MOTION_DDOT>0</MEAN_MOTION_DDOT></tleParameters></data></segment></body></omm>
<omm id="CCSDS_OMM_VERS" version="2.0">
<header><CREATION_DATE/><ORIGINATOR/></header><body><segment><metadata><OBJECT_NAME>ONEWEB-0344</OBJECT_NAME><OBJECT_ID>2021-083AA</OBJECT_ID><CENTER_NAME>EARTH</CENTER_NAME><REF_FRAME>TEME</REF_FRAME><TIME_SYSTEM>UTC</TIME_SYSTEM><MEAN_ELEMENT_THEORY>SGP4</MEAN_ELEMENT_THEORY></metadata><data><meanElements><EPOCH>2025-03-18T20:33:04.687200</EPOCH><MEAN_MOTION>13.13466826</MEAN_MOTION><ECCENTRICITY>.0001441</ECCENTRICITY><INCLINATION>87.8933</INCLINATION><RA_OF_ASC_NODE>50.7569</RA_OF_ASC_NODE><ARG_OF_PERICENTER>80.5150</ARG_OF_PERICENTER><MEAN_ANOMALY>279.6142</MEAN_ANOMALY></meanElements><tleParameters><EPHEMERIS_TYPE>0</EPHEMERIS_TYPE><CLASSIFICATION_TYPE>U</CLASSIFICATION_TYPE><NORAD_CAT_ID>49210</NORAD_CAT_ID><ELEMENT_SET_NO>999</ELEMENT_SET_NO><REV_AT_EPOCH>17242</REV_AT_EPOCH><BSTAR>-.33229E-3</BSTAR><MEAN_MOTION_DOT>-.109E-5</MEAN_MOTION_DOT><MEAN_MOTION_DDOT>0</MEAN_MOTION_DDOT></tleParameters></data></segment></body></omm>
<omm id="CCSDS_OMM_VERS" version="2.0">
<header><CREATION_DATE/><ORIGINATOR/></header><body><segment><metadata><OBJECT_NAME>ONEWEB-0345</OBJECT_NAME><OBJECT_ID>2021-083AB</OBJECT_ID><CENTER_NAME>EARTH</CENTER_NAME><REF_FRAME>TEME</REF_FRAME><TIME_SYSTEM>UTC</TIME_SYSTEM><MEAN_ELEMENT_THEORY>SGP4</MEAN_ELEMENT_THEORY></metadata><data><meanElements><EPOCH>2025-03-18T20:58:42.598560</EPOCH><MEAN_MOTION>13.13470208</MEAN_MOTION><ECCENTRICITY>.0001405</ECCENTRICITY><INCLINATION>87.8928</INCLINATION><RA_OF_ASC_NODE>50.7211</RA_OF_ASC_NODE><ARG_OF_PERICENTER>77.5931</ARG_OF_PERICENTER><MEAN_ANOMALY>282.5355</MEAN_ANOMALY></meanElements><tleParameters><EPHEMERIS_TYPE>0</EPHEMERIS_TYPE><CLASSIFICATION_TYPE>U</CLASSIFICATION_TYPE><NORAD_CAT_ID>49211</NORAD_CAT_ID><ELEMENT_SET_NO>999</ELEMENT_SET_NO><REV_AT_EPOCH>17113</REV_AT_EPOCH><BSTAR>-.766E-3</BSTAR><MEAN_MOTION_DOT>-.267E-5</MEAN_MOTION_DOT><MEAN_MOTION_DDOT>0</MEAN_MOTION_DDOT></tleParameters></data></segment></body></omm>
<omm id="CCSDS_OMM_VERS" version="2.0">
<header><CREATION_DATE/><ORIGINATOR/></header><body><segment><metadata><OBJECT_NAME>ONEWEB-0346</OBJECT_NAME><OBJECT_ID>2021-083AC</OBJECT_ID><CENTER_NAME>EARTH</CENTER_NAME><REF_FRAME>TEME</REF_FRAME><TIME_SYSTEM>UTC</TIME_SYSTEM><MEAN_ELEMENT_THEORY>SGP4</MEAN_ELEMENT_THEORY></metadata><data><meanElements><EPOCH>2025-03-18T21:18:32.896800</EPOCH><MEAN_MOTION>13.18686502</MEAN_MOTION><ECCENTRICITY>.0001784</ECCENTRICITY><INCLINATION>87.9065</INCLINATION><RA_OF_ASC_NODE>65.9900</RA_OF_ASC_NODE><ARG_OF_PERICENTER>101.3939</ARG_OF_PERICENTER><MEAN_ANOMALY>258.7393</MEAN_ANOMALY></meanElements><tleParameters><EPHEMERIS_TYPE>0</EPHEMERIS_TYPE><CLASSIFICATION_TYPE>U</CLASSIFICATION_TYPE><NORAD_CAT_ID>49212</NORAD_CAT_ID><ELEMENT_SET_NO>999</ELEMENT_SET_NO><REV_AT_EPOCH>16997</REV_AT_EPOCH><BSTAR>-.78226E-4</BSTAR><MEAN_MOTION_DOT>-.18E-6</MEAN_MOTION_DOT><MEAN_MOTION_DDOT>0</MEAN_MOTION_DDOT></tleParameters></data></segment></body></omm>
<omm id="CCSDS_OMM_VERS" version="2.0">
<header><CREATION_DATE/><ORIGINATOR/></header><body><segment><metadata><OBJECT_NAME>ONEWEB-0348</OBJECT_NAME><OBJECT_ID>2021-083AD</OBJECT_ID><CENTER_NAME>EARTH</CENTER_NAME><REF_FRAME>TEME</REF_FRAME><TIME_SYSTEM>UTC</TIME_SYSTEM><MEAN_ELEMENT_THEORY>SGP4</MEAN_ELEMENT_THEORY></metadata><data><meanElements><EPOCH>2025-03-18T17:45:07.435296</EPOCH><MEAN_MOTION>13.20827636</MEAN_MOTION><ECCENTRICITY>.0002256</ECCENTRICITY><INCLINATION>87.9339</INCLINATION><RA_OF_ASC_NODE>5.1186</RA_OF_ASC_NODE><ARG_OF_PERICENTER>76.0159</ARG_OF_PERICENTER><MEAN_ANOMALY>284.1225</MEAN_ANOMALY></meanElements><tleParameters><EPHEMERIS_TYPE>0</EPHEMERIS_TYPE><CLASSIFICATION_TYPE>U</CLASSIFICATION_TYPE><NORAD_CAT_ID>49213</NORAD_CAT_ID><ELEMENT_SET_NO>999</ELEMENT_SET_NO><REV_AT_EPOCH>17669</REV_AT_EPOCH><BSTAR>.1051E-3</BSTAR><MEAN_MOTION_DOT>.56E-6</MEAN_MOTION_DOT><MEAN_MOTION_DDOT>0</MEAN_MOTION_DDOT></tleParameters></data></segment></body></omm>
<omm id="CCSDS_OMM_VERS" version="2.0">
<header><CREATION_DATE/><ORIGINATOR/></header><body><segment><metadata><OBJECT_NAME>ONEWEB-0350</OBJECT_NAME><OBJECT_ID>2021-083AE</OBJECT_ID><CENTER_NAME>EARTH</CENTER_NAME><REF_FRAME>TEME</REF_FRAME><TIME_SYSTEM>UTC</TIME_SYSTEM><MEAN_ELEMENT_THEORY>SGP4</MEAN_ELEMENT_THEORY></metadata><data><meanElements><EPOCH>2025-03-18T21:10:51.407616</EPOCH><MEAN_MOTION>13.13469026</MEAN_MOTION><ECCENTRICITY>.0001525</ECCENTRICITY><INCLINATION>87.8927</INCLINATION><RA_OF_ASC_NODE>50.7104</RA_OF_ASC_NODE><ARG_OF_PERICENTER>81.3708</ARG_OF_PERICENTER><MEAN_ANOMALY>278.7594</MEAN_ANOMALY></meanElements><tleParameters><EPHEMERIS_TYPE>0</EPHEMERIS_TYPE><CLASSIFICATION_TYPE>U</CLASSIFICATION_TYPE><NORAD_CAT_ID>49214</NORAD_CAT_ID><ELEMENT_SET_NO>999</ELEMENT_SET_NO><REV_AT_EPOCH>17116</REV_AT_EPOCH><BSTAR>-.126E-2</BSTAR><MEAN_MOTION_DOT>-.447E-5</MEAN_MOTION_DOT><MEAN_MOTION_DDOT>0</MEAN_MOTION_DDOT></tleParameters></data></segment></body></omm>
<omm id="CCSDS_OMM_VERS" version="2.0">
<header><CREATION_DATE/><ORIGINATOR/></header><body><segment><metadata><OBJECT_NAME>ONEWEB-0351</OBJECT_NAME><OBJECT_ID>2021-083AF</OBJECT_ID><CENTER_NAME>EARTH</CENTER_NAME><REF_FRAME>TEME</REF_FRAME><TIME_SYSTEM>UTC</TIME_SYSTEM><MEAN_ELEMENT_THEORY>SGP4</MEAN_ELEMENT_THEORY></metadata><data><meanElements><EPOCH>2025-03-18T19:25:29.809056</EPOCH><MEAN_MOTION>13.20772031</MEAN_MOTION><ECCENTRICITY>.0002317</ECCENTRICITY><INCLINATION>87.9333</INCLINATION><RA_OF_ASC_NODE>5.0656</RA_OF_ASC_NODE><ARG_OF_PERICENTER>59.0536</ARG_OF_PERICENTER><MEAN_ANOMALY>301.0825</MEAN_ANOMALY></meanElements><tleParameters><EPHEMERIS_TYPE>0</EPHEMERIS_TYPE><CLASSIFICATION_TYPE>U</CLASSIFICATION_TYPE><NORAD_CAT_ID>49215</NORAD_CAT_ID><ELEMENT_SET_NO>999</ELEMENT_SET_NO><REV_AT_EPOCH>17666</REV_AT_EPOCH><BSTAR>.17323E-3</BSTAR><MEAN_MOTION_DOT>.83E-6</MEAN_MOTION_DOT><MEAN_MOTION_DDOT>0</MEAN_MOTION_DDOT></tleParameters></data></segment></body></omm>
<omm id="CCSDS_OMM_VERS" version="2.0">
<header><CREATION_DATE/><ORIGINATOR/></header><body><segment><metadata><OBJECT_NAME>ONEWEB-0352</OBJECT_NAME><OBJECT_ID>2021-083AG</OBJECT_ID><CENTER_NAME>EARTH</CENTER_NAME><REF_FRAME>TEME</REF_FRAME><TIME_SYSTEM>UTC</TIME_SYSTEM><MEAN_ELEMENT_THEORY>SGP4</MEAN_ELEMENT_THEORY></metadata><data><meanElements><EPOCH>2025-03-18T20:44:02.744160</EPOCH><MEAN_MOTION>13.13468564</MEAN_MOTION><ECCENTRICITY>.0002038</ECCENTRICITY><INCLINATION>87.8930</INCLINATION><RA_OF_ASC_NODE>50.7527</RA_OF_ASC_NODE><ARG_OF_PERICENTER>71.1575</ARG_OF_PERICENTER><MEAN_ANOMALY>288.9775</MEAN_ANOMALY></meanElements><tleParameters><EPHEMERIS_TYPE>0</EPHEMERIS_TYPE><CLASSIFICATION_TYPE>U</CLASSIFICATION_TYPE><NORAD_CAT_ID>49216</NORAD_CAT_ID><ELEMENT_SET_NO>999</ELEMENT_SET_NO><REV_AT_EPOCH>17125</REV_AT_EPOCH><BSTAR>-.80877E-3</BSTAR><MEAN_MOTION_DOT>-.283E-5</MEAN_MOTION_DOT><MEAN_MOTION_DDOT>0</MEAN_MOTION_DDOT></tleParameters></data></segment></body></omm>

</ndm>
